C/2014 OG392 (PANSTARRS),e,9.0333,145.8016,253.9873,12.21450,0.0230882,0.18378037,351.3018,11/15.0/2020,2000,g  6.0,4.0
# From MPEC 2020-UR0
C/2014 OG392 (PANSTARRS),e,9.0333,145.8016,253.9873,12.21450,0.0230882,0.18378037,351.3018,11/15.0/2020,2000,g  6.0,4.0
# From MPC115880
C/2014 R3 (PANSTARRS),e,90.9178,334.0941,113.4500,11158,0.0000008,0.99934799,0.0000,08/08.8624/2016,2000,g  6.5,4.0
# From MPC 91615
P/2014 R5 (Lemmon-PANSTARRS),e,1.0883,126.5566,213.7198,4.056562,0.1206332,0.41353429,282.5465,11/15.0/2020,2000,g 15.0,4.0
# From MPC104790
C/2014 S2 (PANSTARRS),e,64.5091,8.1455,87.3101,169.9184,0.0004450,0.98775470,0.0000,12/09.0583/2015,2000,g 10.0,4.0
# From MPC 91616
P/2014 U4 (PANSTARRS),e,6.4286,11.8940,347.7332,3.507543,0.1500374,0.46512781,346.4219,11/15.0/2020,2000,g 18.0,4.0
# From MPC 95211
P/2014 V1 (PANSTARRS),e,22.5150,166.2023,177.5649,5.481540,0.0767980,0.53411069,163.0415,11/15.0/2020,2000,g 14.0,4.0
# From MPC 93586
P/2014 W1 (PANSTARRS),e,8.8386,246.2458,152.2583,4.461337,0.1045939,0.38866201,241.7642,11/15.0/2020,2000,g 15.5,4.0
# From MPEC 2020-U96
C/2014 W2 (PANSTARRS),e,82.0584,69.9803,84.9378,568.3570,0.0000727,0.99529567,0.0000,03/08.0450/2016,2000,g  7.5,4.0
# From MPC105542
P/2014 W4 (PANSTARRS),e,15.2714,33.3536,67.8701,6.599813,0.0581308,0.35205420,103.5747,11/15.0/2020,2000,g 11.0,4.0
# From MPC115880
C/2014 W10 (PANSTARRS),e,82.8790,43.1082,43.6525,816.5964,0.0000422,0.99072484,0.0000,03/04.3490/2016,2000,g  8.0,4.0
# From MPC 93587
P/2014 W12 (Gibbs),e,8.5141,299.2894,36.9071,3.518424,0.1493419,0.52410644,327.6945,11/15.0/2020,2000,g 15.0,4.0
# From MPC 94281
P/2014 X1 (Elenin),e,26.0022,61.5047,33.9843,6.210192,0.0636864,0.70852346,136.5991,11/15.0/2020,2000,g 15.0,4.0
# From MPC100579
C/2014 Y1 (PANSTARRS),h,01/16.1138/2016,14.9090,19.5596,182.3268,1.001447,2.253482,2000,9.5,4.0
# From MPC 92275
P/2015 A3 (PANSTARRS),e,172.5292,277.1722,249.2355,7.807632,0.0451778,0.85142560,94.7293,11/15.0/2020,2000,g 20.0,4.0
# From MPC 99270
P/2015 B1 (PANSTARRS),e,18.0296,353.0239,188.8243,9.499807,0.0336614,0.36858113,63.5290,11/15.0/2020,2000,g  8.5,4.0
# From MPC108592
C/2015 B2 (PANSTARRS),e,104.9961,341.8539,284.7177,38114,0.0000001,0.99991158,0.0000,05/05.5972/2016,2000,g  9.5,4.0
# From MPC109141
P/2015 B4 (Lemmon-PANSTARRS),e,1.7600,266.0251,227.4836,8.533490,0.0395379,0.56035856,83.4333,11/15.0/2020,2000,g 11.0,4.0
# From MPC101096
P/2015 C1 (TOTAS-Gibbs),e,13.8898,348.8235,178.3401,6.585957,0.0583144,0.56026620,118.2679,11/15.0/2020,2000,g 12.5,4.0
# From MPC119995
C/2015 D3 (PANSTARRS),h,05/02.6588/2016,128.5479,157.0557,2.9679,1.003713,8.145410,2000,5.5,4.0
# From MPC109141
P/2015 D5 (Kowalski),e,20.4984,74.0599,39.9123,8.972830,0.0366699,0.48882373,88.7454,11/15.0/2020,2000,g  9.0,4.0
# From MPC 96866
P/2015 D6 (Lemmon-PANSTARRS),e,20.2030,46.0461,125.1992,7.146657,0.0515881,0.36207319,101.1455,11/15.0/2020,2000,g 10.5,4.0
# From MPC112390
C/2015 ER61 (PANSTARRS),e,6.3398,235.1661,68.2914,487.6435,0.0000915,0.99786160,0.0000,05/10.4384/2017,2000,g 11.0,2.0
# From MPEC 2018-BF5
C/2015 E61-B (PANSTARRS),e,6.3414,235.2013,68.3806,1344,0.0000200,0.99922296,0.0000,05/10.4160/2017,2000,g 13.5,2.0
# From MPC109142
P/2015 F1 (PANSTARRS),e,2.8025,40.3940,187.4501,3.523181,0.1490396,0.27809790,308.3570,11/15.0/2020,2000,g 12.5,4.0
# From MPC117068
C/2015 H2 (PANSTARRS),h,09/14.2587/2016,33.6572,350.6808,288.0858,1.005644,4.977167,2000,7.5,4.0
# From MPC100280
P/2015 HG16 (PANSTARRS),e,18.8096,58.9347,47.3496,4.748821,0.0952413,0.35083386,222.4842,11/15.0/2020,2000,g 12.5,4.0
# From MPC 95733
P/2015 J3 (NEOWISE),e,8.1309,111.3512,129.4487,3.348372,0.1608621,0.55439143,334.5603,11/15.0/2020,2000,g 16.5,4.0
# From MPC 95213
P/2015 K5 (PANSTARRS),e,39.9451,134.1779,106.3268,6.719991,0.0565784,0.55362777,112.5462,11/15.0/2020,2000,g 13.5,4.0
# From MPC107684
P/2015 M2 (PANSTARRS),e,3.9730,86.5823,225.3947,7.227640,0.0507235,0.18107546,96.0802,11/15.0/2020,2000,g  8.5,4.0
# From MPC112390
C/2015 O1 (PANSTARRS),h,02/19.5581/2018,127.2257,299.8517,89.6322,1.001038,3.729604,2000,6.5,4.0
# From MPC 99819
P/2015 P4 (PANSTARRS),e,8.7178,104.7628,280.5726,6.050087,0.0662310,0.58451171,116.6574,11/15.0/2020,2000,g 14.0,4.0
# From MPC102952
P/2015 PD229 (Cameron-ISON),e,2.0262,342.6361,352.4226,7.181617,0.0512119,0.32812533,98.2515,11/15.0/2020,2000,g 11.5,2.0
# From MPC 99819
P/2015 Q1 (Scotti),e,22.3848,202.9431,199.8476,3.472931,0.1522860,0.47835483,290.6138,11/15.0/2020,2000,g 14.0,4.0
# From MPC 96867
P/2015 Q2 (Pimentel),e,146.4887,228.4078,244.4684,7.347011,0.0494923,0.75092507,93.8898,11/15.0/2020,2000,g 15.5,4.0
# From MPC 98562
P/2015 R1 (PANSTARRS),e,22.6776,48.4416,300.4156,5.880603,0.0691148,0.63401040,135.9643,11/15.0/2020,2000,g 14.0,4.0
# From MPC 95734
P/2015 R2 (PANSTARRS),e,15.4782,168.6018,149.7444,4.488674,0.1036399,0.45279804,205.5178,11/15.0/2020,2000,g 14.5,4.0
# From MPC117068
C/2015 T2 (PANSTARRS),e,124.5505,51.0315,30.6583,2082,0.0000104,0.99666942,0.0000,05/18.5200/2017,2000,g  8.0,4.0
# From MPC 96280
P/2015 T3 (PANSTARRS),e,13.0937,120.5019,178.6330,4.326181,0.1095335,0.50818108,359.9227,12/21.0/2014,2000,g 14.0,4.0
# From MPC102953
C/2015 T4 (PANSTARRS),e,87.9879,251.8210,270.0682,79.84261,0.0013815,0.97120439,0.0000,06/16.9673/2016,2000,g 11.0,4.0
# From MPC102097
C/2015 T5 (Sheppard-Tholen),e,11.0502,311.0713,61.8397,28.14873,0.0065996,0.66844895,11.5994,11/15.0/2020,2000,g  7.5,4.0
# From MPC102953
P/2015 TO19 (Lemmon-PANSTARRS),e,6.4995,321.6501,89.1416,4.556404,0.1013376,0.35802464,173.8713,11/15.0/2020,2000,g 14.0,4.0
# From MPC110080
P/2015 TP200 (LINEAR),e,8.7763,6.9932,82.6383,7.276880,0.0502095,0.53492351,74.3032,11/15.0/2020,2000,g 11.0,4.0
# From MPC101097
C/2015 TQ209 (LINEAR),e,11.3028,223.3579,282.1653,598.0178,0.0000674,0.99763181,0.0000,08/25.5367/2016,2000,g 10.5,4.0
# From MPC115881
C/2015 V1 (PANSTARRS),e,139.2237,197.1877,179.6218,2575,0.0000075,0.99834218,0.0000,12/16.9700/2017,2000,g  6.5,4.0
# From MPC112390
C/2015 V2 (Johnson),h,06/11.9680/2017,49.8596,69.8890,164.9974,1.001867,1.643555,2000,5.0,4.0
# From MPC102953
C/2015 V3 (PANSTARRS),e,86.2546,2.2237,0.7334,638.8290,0.0000610,0.99337361,0.0000,11/24.0551/2015,2000,g  9.0,4.0
# From MPC104791
C/2015 V4 (PANSTARRS),e,60.7814,179.9299,306.9927,18.48009,0.0124065,0.70447312,19.1015,11/15.0/2020,2000,g  8.5,4.0
# From MPEC 2020-U96
C/2015 VL62 (Lemmon-Yeung-PANSTARRS),h,08/27.9122/2017,165.8163,95.0998,128.7790,1.001180,2.717035,2000,8.0,4.0
# From MPEC 2020-UR0
C/2015 VL62 (Lemmon-Yeung-PANSTARRS),h,08/27.9122/2017,165.8163,95.0998,128.7790,1.001180,2.717035,2000,8.0,4.0
# From MPC102098
C/2015 WZ (PANSTARRS),e,134.6126,40.1781,66.7294,146.9065,0.0005535,0.99060403,0.0000,04/13.7830/2016,2000,g 15.0,4.0
# From MPC109142
C/2015 W1 (Gibbs),e,87.3631,114.3163,48.1748,3341,0.0000051,0.99932855,0.0000,05/13.9810/2016,2000,g 13.0,4.0
# From MPC101098
P/2015 W2 (Catalina),e,11.6070,294.2537,117.5091,7.297006,0.0500020,0.63375917,93.6283,11/15.0/2020,2000,g 13.0,4.0
# From MPEC 2020-U96
C/2015 XY1 (Lemmon),h,04/27.8315/2018,148.8549,281.6222,196.2354,1.002931,7.924211,2000,5.5,4.0
# From MPEC 2020-UR0
C/2015 XY1 (Lemmon),h,04/27.8347/2018,148.8549,281.6222,196.2356,1.002919,7.924201,2000,5.5,4.0
# From MPC101098
P/2015 X1 (PANSTARRS),e,12.1515,161.7701,218.9484,3.631483,0.1424223,0.41899568,265.8211,11/15.0/2020,2000,g 16.0,4.0
# From MPC100281
C/2015 X2 (Catalina),e,72.0732,101.0989,42.3342,15.78156,0.0157210,0.87790714,28.2059,11/15.0/2020,2000,g 16.0,4.0
# From MPC 97498
P/2015 X3 (PANSTARRS),e,24.3857,77.3181,306.6539,5.009918,0.0878938,0.43872816,169.2954,11/15.0/2020,2000,g 15.0,4.0
# From MPC109142
C/2015 X4 (Elenin),e,29.5068,262.6017,176.2138,17.93591,0.0129754,0.81112371,23.8692,11/15.0/2020,2000,g 10.0,4.0
# From MPC119995
C/2015 X5 (PANSTARRS),h,12/29.4915/2017,124.3082,122.3462,27.6613,1.001988,6.797566,2000,7.5,4.0
# From MPC115881
P/2015 X6 (PANSTARRS),e,4.5648,106.9471,329.8700,2.753245,0.2157430,0.17255077,6.2281,11/15.0/2020,2000,g 16.0,4.0
# From MPC109143
C/2015 X7 (ATLAS),e,57.5604,139.9273,348.3946,14640,0.0000006,0.99974850,0.0000,07/29.2078/2016,2000,g  9.0,4.0
# From MPC107048
C/2015 X8 (NEOWISE),e,155.1773,191.1619,20.3879,19.74244,0.0112358,0.94008286,20.7703,11/15.0/2020,2000,g 16.0,4.0
# From MPC109143
C/2015 Y1 (LINEAR),e,71.1653,135.8174,24.6654,244.3799,0.0002580,0.98970299,0.0000,05/13.6349/2016,2000,g 12.0,4.0
# From MPC119995
C/2016 A1 (PANSTARRS),h,11/22.5842/2017,121.2052,128.2073,10.2444,1.001370,5.323156,2000,6.0,4.0
# From MPC100282
P/2016 A2 (Christensen),e,26.4069,291.6141,141.5289,4.750854,0.0951802,0.27075364,188.0915,11/15.0/2020,2000,g 11.5,4.0
# From MPC115881
P/2016 A3 (PANSTARRS),e,8.5101,187.2627,340.9856,7.890073,0.0444716,0.38729434,57.6223,11/15.0/2020,2000,g 10.0,4.0
# From MPC109143
C/2016 A6 (PANSTARRS),e,120.9355,300.3764,141.0160,204.4083,0.0003373,0.98825004,0.0000,11/06.5583/2015,2000,g 15.0,4.0
# From MPC102098
P/2016 A7 (PANSTARRS),e,16.6211,221.4871,352.6268,5.031792,0.0873213,0.56522911,150.6757,11/15.0/2020,2000,g 16.0,4.0
# From MPEC 2020-U96
C/2016 A8 (LINEAR),e,148.2430,111.3380,130.4117,34.30678,0.0049049,0.94494369,7.5475,11/15.0/2020,2000,g 12.0,4.0
# From MPEC 2020-UR0
C/2016 A8 (LINEAR),e,148.2430,111.3380,130.4117,34.31508,0.0049032,0.94495696,7.5448,11/15.0/2020,2000,g 12.0,4.0
# From MPC107048
C/2016 B1 (NEOWISE),e,50.4542,232.0013,8.6831,440.5313,0.0001066,0.99270083,0.0000,12/04.6173/2016,2000,g  9.5,4.0
# From MPC109143
P/2016 BA14 (PANSTARRS),e,18.8939,180.5303,351.8936,3.024949,0.1873385,0.66521081,319.8483,11/15.0/2020,2000,g 21.0,4.0
# From MPC110494
C/2016 C1 (PANSTARRS),h,02/18.4557/2016,56.2311,181.8152,328.7348,1.001915,8.464709,2000,5.5,4.0
# From MPC101098
C/2016 C2 (NEOWISE),e,38.0503,24.4272,214.5698,65.96748,0.0018395,0.97622180,0.0000,04/19.2655/2016,2000,g 16.0,4.0
# From MPC110494
C/2016 E1 (PANSTARRS),h,06/04.3450/2017,131.8881,233.0763,47.4757,1.006139,8.179334,2000,6.5,4.0
# From MPC 99821
